[{"id":1,"internalId":null,"appelation":"Hammerbrook","abbreviation":"HAB","capacityMax":0,"longitude":10.023625,"latitude":53.546625,"street":"Hammerbrookstraße","zip":"20097","city":"Hamburg","geoId":null,"contactName":null,"contactPhone":null,"contactMail":null},{"id":2,"internalId":null,"appelation":"Langenhorn Markt ","abbreviation":"LMT","capacityMax":460,"longitude":10.01742,"latitude":53.6501,"street":"Tangstedter Landstraße 65","zip":"22415","city":"Hamburg","geoId":null,"contactName":null,"contactPhone":null,"contactMail":null},{"id":3,"internalId":"421073","appelation":"Volksdorf","abbreviation":"VFB","capacityMax":366,"longitude":10.1619586,"latitude":53.6500279,"street":"Farmsener Landstraße 202","zip":"22359","city":"Hamburg","geoId":"","contactName":"","contactPhone":"","contactMail":""},{"id":4,"internalId":"1122145","appelation":"Meiendorfer Weg","abbreviation":"MEW","capacityMax":263,"longitude":10.156241,"latitude":53.639344,"street":"Meiendorfer Weg 127","zip":"22359","city":"Hamburg","geoId":"","contactName":"","contactPhone":"","contactMail":""},{"id":5,"internalId":null,"appelation":"Trabrennbahn","abbreviation":"TR","capacityMax":90,"longitude":10.101424,"latitude":53.598258,"street":"Traberweg","zip":"22159","city":"Hamburg","geoId":null,"contactName":null,"contactPhone":null,"contactMail":null},{"id":6,"internalId":null,"appelation":"Kiwittsmoor","abbreviation":"UKW","capacityMax":309,"longitude":10.01706,"latitude":53.6753,"street":"Kiwittsmoor 4b","zip":"22419","city":"Hamburg","geoId":null,"contactName":null,"contactPhone":null,"contactMail":null},{"id":7,"internalId":"2122393","appelation":"Poppenbüttel /W.","abbreviation":"PBS","capacityMax":95,"longitude":10.093712,"latitude":53.651851,"street":"Stormarnplatz 3","zip":"22393","city":"Hamburg","geoId":"","contactName":"","contactPhone":"","contactMail":""},{"id":8,"internalId":"1722393","appelation":"Poppenbüttel /S.","abbreviation":"PBW","capacityMax":364,"longitude":10.0917,"latitude":53.64968,"street":"Tennigkeitweg 1b","zip":"22391","city":"Hamburg","geoId":"","contactName":"","contactPhone":"","contactMail":""},{"id":9,"internalId":"1222159","appelation":"Berne","abbreviation":"BER","capacityMax":193,"longitude":10.117856,"latitude":53.607519,"street":"Berner Heerweg","zip":"22159","city":"Hamburg","geoId":"","contactName":"","contactPhone":"","contactMail":""},{"id":10,"internalId":null,"appelation":"Steinfurther Allee","abbreviation":"USA","capacityMax":354,"longitude":10.13833,"latitude":53.541331,"street":"Möllner Landstraße 17","zip":"22117","city":"Hamburg","geoId":null,"contactName":null,"contactPhone":null,"contactMail":null},{"id":11,"internalId":null,"appelation":"Rahlstedt","abbreviation":"RAD","capacityMax":330,"longitude":10.1521898,"latitude":53.6042002,"street":"Doberaner Weg 16","zip":"22143","city":"Hamburg","geoId":null,"contactName":null,"contactPhone":null,"contactMail":null},{"id":12,"internalId":"221033","appelation":"Bergedorf PHaus","abbreviation":"BBF-B","capacityMax":406,"longitude":10.2036658,"latitude":53.4892626,"street":"Bergedorfer Straße 85a","zip":"21033","city":"Hamburg","geoId":"","contactName":"","contactPhone":"","contactMail":""},{"id":13,"internalId":null,"appelation":"Nettelnburg Nord","abbreviation":"NET-N","capacityMax":0,"longitude":10.1806233,"latitude":53.4894837,"street":"Friedrich Frank Bogen 109","zip":"21033","city":"Hamburg","geoId":null,"contactName":null,"contactPhone":null,"contactMail":null},{"id":14,"internalId":"221031","appelation":"Bergedorf Palette","abbreviation":"BBF-J","capacityMax":196,"longitude":10.20654,"latitude":53.49009,"street":"Johann-Meyer-Straße 58","zip":"21031","city":"Hamburg","geoId":"","contactName":"","contactPhone":"","contactMail":""},{"id":15,"internalId":"922119","appelation":"Horner Rennbahn","abbreviation":"HRB","capacityMax":181,"longitude":10.087417,"latitude":53.553774,"street":"Hermannstal 10","zip":"22111","city":"Hamburg","geoId":null,"contactName":"","contactPhone":"","contactMail":""},{"id":16,"internalId":null,"appelation":"Neugraben","abbreviation":"NGR","capacityMax":855,"longitude":9.8505974,"latitude":53.4748151,"street":"Ackerweg 1","zip":"21147","city":"Hamburg","geoId":null,"contactName":null,"contactPhone":null,"contactMail":null},{"id":17,"internalId":null,"appelation":"Harburg","abbreviation":"BHR","capacityMax":902,"longitude":10.0071672,"latitude":53.4576389,"street":"Hörstener Straße 13","zip":"21079","city":"Hamburg","geoId":null,"contactName":null,"contactPhone":null,"contactMail":null},{"id":18,"internalId":null,"appelation":"Veddel","abbreviation":"VED","capacityMax":439,"longitude":10.013326,"latitude":53.521706,"street":"Harburger Chaussee 17","zip":"20539","city":"Hamburg","geoId":null,"contactName":null,"contactPhone":null,"contactMail":null},{"id":19,"internalId":"2022523","appelation":"Elbgaustrasse","abbreviation":"EGO","capacityMax":265,"longitude":9.8888057,"latitude":53.602718,"street":"Elbgaustraße/Dammstraße 104","zip":"22523","city":"Hamburg","geoId":"","contactName":"","contactPhone":"","contactMail":""},{"id":20,"internalId":null,"appelation":"Bahrenfeld","abbreviation":"SBF","capacityMax":252,"longitude":9.909647,"latitude":53.560016,"street":"Pfitznerstraße 1","zip":"22761","city":"Hamburg","geoId":null,"contactName":null,"contactPhone":null,"contactMail":null},{"id":21,"internalId":null,"appelation":"Klein Flottbek","abbreviation":"KFb","capacityMax":255,"longitude":9.867044,"latitude":53.571926,"street":"Ohnhorststraße 21","zip":"22609","city":"Hamburg","geoId":null,"contactName":null,"contactPhone":null,"contactMail":null},{"id":22,"internalId":null,"appelation":"Hagenbecks Tierpark","abbreviation":"HTP","capacityMax":491,"longitude":9.942929,"latitude":53.595125,"street":"Lokstedter Grenzstraße 2","zip":"22527","city":"Hamburg","geoId":null,"contactName":null,"contactPhone":null,"contactMail":null},{"id":23,"internalId":null,"appelation":"Lattenkamp","abbreviation":"Lau","capacityMax":65,"longitude":9.9970353,"latitude":53.6019774,"street":"Lattenkamp 35b","zip":"22299","city":"Hamburg","geoId":null,"contactName":null,"contactPhone":null,"contactMail":null},{"id":24,"internalId":"1721147","appelation":"Neuwiedenthal","abbreviation":"NWT","capacityMax":55,"longitude":0.0,"latitude":0.0,"street":"Striepenweg","zip":"21147","city":"Hamburg","geoId":"","contactName":"","contactPhone":"","contactMail":""},{"id":25,"internalId":null,"appelation":"Neuwiedenthal","abbreviation":"NWS","capacityMax":57,"longitude":9.876976,"latitude":53.473031,"street":"Rehrstieg 23","zip":"21147","city":"Hamburg","geoId":null,"contactName":null,"contactPhone":null,"contactMail":null},{"id":26,"internalId":null,"appelation":"Veddel","abbreviation":"VED-Ppl","capacityMax":225,"longitude":10.013336,"latitude":53.521706,"street":"Harburger Chaussee 17","zip":"20539","city":"Hamburg","geoId":null,"contactName":null,"contactPhone":null,"contactMail":null},{"id":27,"internalId":"14221035","appelation":"Nettelburg West","abbreviation":"NET-W","capacityMax":107,"longitude":10.2055129,"latitude":53.506109,"street":"Edit-Stein-Platz","zip":"21035","city":"Hamburg","geoId":null,"contactName":"","contactPhone":"","contactMail":""},{"id":28,"internalId":"1522335","appelation":"Ohlsdorf","abbreviation":"OHL","capacityMax":234,"longitude":10.032333,"latitude":53.620902,"street":"Sommerkamp ","zip":"22335","city":"Hamburg","geoId":null,"contactName":null,"contactPhone":null,"contactMail":null},{"id":29,"internalId":"1822335","appelation":"Fuhlsbüttel","abbreviation":"FUH","capacityMax":36,"longitude":0.0,"latitude":0.0,"street":"Bergkoppelweg","zip":"22415","city":"Hamburg","geoId":"","contactName":"","contactPhone":"","contactMail":""},{"id":30,"internalId":"14121035","appelation":"Nettelnburg Ost","abbreviation":"NET-O","capacityMax":267,"longitude":10.1822501,"latitude":53.4885502,"street":"Rahel-Varnhagen-Weg 26","zip":"21035","city":"Hamburg","geoId":null,"contactName":"","contactPhone":"","contactMail":""},{"id":31,"internalId":null,"appelation":"Friedrichsberg","abbreviation":"Fri","capacityMax":93,"longitude":0.0,"latitude":0.0,"street":"Krausestraße ","zip":"22049","city":"Hamburg","geoId":null,"contactName":null,"contactPhone":null,"contactMail":null},{"id":32,"internalId":null,"appelation":"Ohlstedt","abbreviation":"","capacityMax":0,"longitude":0.0,"latitude":0.0,"street":"Westerfelde","zip":"22397","city":"Hamburg","geoId":null,"contactName":null,"contactPhone":null,"contactMail":null},{"id":33,"internalId":null,"appelation":"Hagenbecks Tierpark","abbreviation":"HTPP","capacityMax":0,"longitude":0.0,"latitude":0.0,"street":"Lokstedter Grenzstraße","zip":"22527","city":"Hamburg","geoId":null,"contactName":null,"contactPhone":null,"contactMail":null},{"id":34,"internalId":null,"appelation":"Hochkamp","abbreviation":"","capacityMax":0,"longitude":0.0,"latitude":0.0,"street":"Winkelmannstraße","zip":"22609","city":"Hamburg","geoId":null,"contactName":null,"contactPhone":null,"contactMail":null},{"id":35,"internalId":null,"appelation":"Schnelsen","abbreviation":"","capacityMax":0,"longitude":0.0,"latitude":0.0,"street":"Pinneberger Straße","zip":"22457","city":"Hamburg","geoId":null,"contactName":null,"contactPhone":null,"contactMail":null},{"id":36,"internalId":"1722415","appelation":"Langenhorn Nord","abbreviation":"LHN","capacityMax":92,"longitude":0.0,"latitude":0.0,"street":"Foorthkamp","zip":"22419","city":"Hamburg","geoId":"","contactName":"","contactPhone":"","contactMail":""}]
